ASTRA_L_00005046-21
1 54578U 22051MM  26070.40778935  .00000000  00000+0  00000-0 0  9996
2 54578  30.0000 317.6471 0000000   0.0000  88.2353 15.59190035    11
ASTRA_L_00005046-22
1 54579U 23761DB  26070.40778935  .00000000  00000+0  00000-0 0  9996
2 54579  30.0000 317.6471 0000000   0.0000  91.9853 15.59190035    18
ASTRA_L_00005046-23
1 54580U 22632JX  26070.40778935  .00000000  00000+0  00000-0 0  9994
2 54580  30.0000 317.6471 0000000   0.0000  95.7353 15.59190035    17
ASTRA_L_00005046-24
1 54581U 26076AN  26070.40778935  .00000000  00000+0  00000-0 0  9991
2 54581  30.0000 317.6471 0000000   0.0000  99.4853 15.59190035    14
ASTRA_L_00005046-25
1 54582U 26552EW  26070.40778935  .00000000  00000+0  00000-0 0  9991
2 54582  30.0000 317.6471 0000000   0.0000 103.2353 15.59190035    14
ASTRA_L_00005046-26
1 54583U 22694CO  26070.40778935  .00000000  00000+0  00000-0 0  9995
2 54583  30.0000 317.6471 0000000   0.0000 106.9853 15.59190035    10
ASTRA_L_00005046-27
1 54584U 23940WA  26070.40778935  .00000000  00000+0  00000-0 0  9991
2 54584  30.0000 317.6471 0000000   0.0000 110.7353 15.59190035    19
ASTRA_L_00005046-28
1 54585U 24887FP  26070.40778935  .00000000  00000+0  00000-0 0  9993
2 54585  30.0000 317.6471 0000000   0.0000 114.4853 15.59190035    16
ASTRA_L_00005046-29
1 54586U 25856KQ  26070.40778935  .00000000  00000+0  00000-0 0  9991
2 54586  30.0000 317.6471 0000000   0.0000 118.2353 15.59190035    14
ASTRA_L_00005046-30
1 54587U 23203AG  26070.40778935  .00000000  00000+0  00000-0 0  9996
2 54587  30.0000 317.6471 0000000   0.0000 121.9853 15.59190035    11
ASTRA_L_00005046-31
1 54588U 23186AG  26070.40778935  .00000000  00000+0  00000-0 0  9997
2 54588  30.0000 317.6471 0000000   0.0000 125.7353 15.59190035    19
ASTRA_L_00005046-32
1 54589U 24816EL  26070.40778935  .00000000  00000+0  00000-0 0  9999
2 54589  30.0000 317.6471 0000000   0.0000 129.4853 15.59190035    16
ASTRA_L_00005046-33
1 54590U 26383GB  26070.40778935  .00000000  00000+0  00000-0 0  9992
2 54590  30.0000 317.6471 0000000   0.0000 133.2353 15.59190035    16
ASTRA_L_00005046-34
1 54591U 24157N   26070.40778935  .00000000  00000+0  00000-0 0  9990
2 54591  30.0000 317.6471 0000000   0.0000 136.9853 15.59190035    12
ASTRA_L_00005046-35
1 54592U 26942XR  26070.40778935  .00000000  00000+0  00000-0 0  9995
2 54592  30.0000 317.6471 0000000   0.0000 140.7353 15.59190035    11
ASTRA_L_00005046-36
1 54593U 26827SA  26070.40778935  .00000000  00000+0  00000-0 0  9998
2 54593  30.0000 317.6471 0000000   0.0000 144.4853 15.59190035    18
ASTRA_L_00005046-37
1 54594U 22171WH  26070.40778935  .00000000  00000+0  00000-0 0  9997
2 54594  30.0000 317.6471 0000000   0.0000 148.2353 15.59190035    16
ASTRA_L_00005046-38
1 54595U 25485FE  26070.40778935  .00000000  00000+0  00000-0 0  9999
2 54595  30.0000 317.6471 0000000   0.0000 151.9853 15.59190035    13
ASTRA_L_00005046-39
1 54596U 24714DE  26070.40778935  .00000000  00000+0  00000-0 0  9994
2 54596  30.0000 317.6471 0000000   0.0000 155.7353 15.59190035    11
ASTRA_L_00005046-40
1 54597U 25494CK  26070.40778935  .00000000  00000+0  00000-0 0  9991
2 54597  30.0000 317.6471 0000000   0.0000 159.4853 15.59190035    18
ASTRA_L_00005046-41
1 54598U 24471RZ  26070.40778935  .00000000  00000+0  00000-0 0  9996
2 54598  30.0000 317.6471 0000000   0.0000 163.2353 15.59190035    17
ASTRA_L_00005046-42
1 54599U 23810IP  26070.40778935  .00000000  00000+0  00000-0 0  9993
2 54599  30.0000 317.6471 0000000   0.0000 166.9853 15.59190035    13
ASTRA_L_00005046-43
1 54600U 22634AI  26070.40778935  .00000000  00000+0  00000-0 0  9999
2 54600  30.0000 317.6471 0000000   0.0000 170.7353 15.59190035    14
ASTRA_L_00005046-44
1 54601U 23303OK  26070.40778935  .00000000  00000+0  00000-0 0  9994
2 54601  30.0000 317.6471 0000000   0.0000 174.4853 15.59190035    11
ASTRA_L_00005046-45
1 54602U 26489EG  26070.40778935  .00000000  00000+0  00000-0 0  9993
2 54602  30.0000 317.6471 0000000   0.0000 178.2353 15.59190035    19
ASTRA_L_00005046-46
1 54603U 23340HG  26070.40778935  .00000000  00000+0  00000-0 0  9997
2 54603  30.0000 317.6471 0000000   0.0000 181.9853 15.59190035    16
ASTRA_L_00005046-47
1 54604U 25566NF  26070.40778935  .00000000  00000+0  00000-0 0  9990
2 54604  30.0000 317.6471 0000000   0.0000 185.7353 15.59190035    14
ASTRA_L_00005046-48
1 54605U 24408TK  26070.40778935  .00000000  00000+0  00000-0 0  9995
2 54605  30.0000 317.6471 0000000   0.0000 189.4853 15.59190035    11
ASTRA_L_00005046-49
1 54606U 24797UY  26070.40778935  .00000000  00000+0  00000-0 0  9997
2 54606  30.0000 317.6471 0000000   0.0000 193.2353 15.59190035    10
ASTRA_L_00005046-50
1 54607U 22473CS  26070.40778935  .00000000  00000+0  00000-0 0  9997
2 54607  30.0000 317.6471 0000000   0.0000 196.9853 15.59190035    16
ASTRA_L_00005046-51
1 54608U 24229DU  26070.40778935  .00000000  00000+0  00000-0 0  9999
2 54608  30.0000 317.6471 0000000   0.0000 200.7353 15.59190035    16
ASTRA_L_00005046-52
1 54609U 24356HR  26070.40778935  .00000000  00000+0  00000-0 0  9991
2 54609  30.0000 317.6471 0000000   0.0000 204.4853 15.59190035    13
ASTRA_L_00005046-53
1 54610U 25457YA  26070.40778935  .00000000  00000+0  00000-0 0  9996
2 54610  30.0000 317.6471 0000000   0.0000 208.2353 15.59190035    12
ASTRA_L_00005046-54
1 54611U 22865VQ  26070.40778935  .00000000  00000+0  00000-0 0  9997
2 54611  30.0000 317.6471 0000000   0.0000 211.9853 15.59190035    19
ASTRA_L_00005046-55
1 54612U 23429TH  26070.40778935  .00000000  00000+0  00000-0 0  9995
2 54612  30.0000 317.6471 0000000   0.0000 215.7353 15.59190035    17
ASTRA_L_00005046-56
1 54613U 26907WO  26070.40778935  .00000000  00000+0  00000-0 0  9990
2 54613  30.0000 317.6471 0000000   0.0000 219.4853 15.59190035    14
ASTRA_L_00005046-57
1 54614U 26772NJ  26070.40778935  .00000000  00000+0  00000-0 0  9991
2 54614  30.0000 317.6471 0000000   0.0000 223.2353 15.59190035    13
ASTRA_L_00005046-58
1 54615U 23798AN  26070.40778935  .00000000  00000+0  00000-0 0  9997
2 54615  30.0000 317.6471 0000000   0.0000 226.9853 15.59190035    19
ASTRA_L_00005046-59
1 54616U 23729LP  26070.40778935  .00000000  00000+0  00000-0 0  9992
2 54616  30.0000 317.6471 0000000   0.0000 230.7353 15.59190035    18
ASTRA_L_00005046-60
1 54617U 24190CD  26070.40778935  .00000000  00000+0  00000-0 0  9996
2 54617  30.0000 317.6471 0000000   0.0000 234.4853 15.59190035    15
ASTRA_L_00005046-61
1 54618U 22562RW  26070.40778935  .00000000  00000+0  00000-0 0  9998
2 54618  30.0000 317.6471 0000000   0.0000 238.2353 15.59190035    13
ASTRA_L_00005046-62
1 54619U 25310OZ  26070.40778935  .00000000  00000+0  00000-0 0  9993
2 54619  30.0000 317.6471 0000000   0.0000 241.9853 15.59190035    10
ASTRA_L_00005046-63
1 54620U 26993HT  26070.40778935  .00000000  00000+0  00000-0 0  9993
2 54620  30.0000 317.6471 0000000   0.0000 245.7353 15.59190035    19
ASTRA_L_00005046-64
1 54621U 26075BW  26070.40778935  .00000000  00000+0  00000-0 0  9995
2 54621  30.0000 317.6471 0000000   0.0000 249.4853 15.59190035    16
ASTRA_L_00005046-65
1 54622U 25489YR  26070.40778935  .00000000  00000+0  00000-0 0  9994
2 54622  30.0000 317.6471 0000000   0.0000 253.2353 15.59190035    15
ASTRA_L_00005046-66
1 54623U 26546K   26070.40778935  .00000000  00000+0  00000-0 0  9990
2 54623  30.0000 317.6471 0000000   0.0000 256.9853 15.59190035    11
ASTRA_L_00005046-67
1 54624U 25566NJ  26070.40778935  .00000000  00000+0  00000-0 0  9992
2 54624  30.0000 317.6471 0000000   0.0000 260.7353 15.59190035    10
ASTRA_L_00005046-68
1 54625U 25280HR  26070.40778935  .00000000  00000+0  00000-0 0  9996
2 54625  30.0000 317.6471 0000000   0.0000 264.4853 15.59190035    17
ASTRA_L_00005046-69
1 54626U 24202VB  26070.40778935  .00000000  00000+0  00000-0 0  9990
2 54626  30.0000 317.6471 0000000   0.0000 268.2353 15.59190035    15
ASTRA_L_00005046-70
1 54627U 25202UA  26070.40778935  .00000000  00000+0  00000-0 0  9992
2 54627  30.0000 317.6471 0000000   0.0000 271.9853 15.59190035    12
ASTRA_L_00005046-71
1 54628U 24363RQ  26070.40778935  .00000000  00000+0  00000-0 0  9990
2 54628  30.0000 317.6471 0000000   0.0000 275.7353 15.59190035    10
ASTRA_L_00005046-72
1 54629U 22338GH  26070.40778935  .00000000  00000+0  00000-0 0  9991
2 54629  30.0000 317.6471 0000000   0.0000 279.4853 15.59190035    17
ASTRA_L_00005046-73
1 54630U 23261DE  26070.40778935  .00000000  00000+0  00000-0 0  9999
2 54630  30.0000 317.6471 0000000   0.0000 283.2353 15.59190035    17
ASTRA_L_00005046-74
1 54631U 26180GO  26070.40778935  .00000000  00000+0  00000-0 0  9993
2 54631  30.0000 317.6471 0000000   0.0000 286.9853 15.59190035    13
ASTRA_L_00005046-75
1 54632U 26739UT  26070.40778935  .00000000  00000+0  00000-0 0  9994
2 54632  30.0000 317.6471 0000000   0.0000 290.7353 15.59190035    12
ASTRA_L_00005046-76
1 54633U 24680LY  26070.40778935  .00000000  00000+0  00000-0 0  9998
2 54633  30.0000 317.6471 0000000   0.0000 294.4853 15.59190035    19
ASTRA_L_00005046-77
1 54634U 22008RJ  26070.40778935  .00000000  00000+0  00000-0 0  9991
2 54634  30.0000 317.6471 0000000   0.0000 298.2353 15.59190035    17
ASTRA_L_00005046-78
1 54635U 23830SU  26070.40778935  .00000000  00000+0  00000-0 0  9996
2 54635  30.0000 317.6471 0000000   0.0000 301.9853 15.59190035    15
ASTRA_L_00005046-79
1 54636U 24525GF  26070.40778935  .00000000  00000+0  00000-0 0  9999
2 54636  30.0000 317.6471 0000000   0.0000 305.7353 15.59190035    13
ASTRA_L_00005046-80
1 54637U 26246ZS  26070.40778935  .00000000  00000+0  00000-0 0  9992
2 54637  30.0000 317.6471 0000000   0.0000 309.4853 15.59190035    10
ASTRA_L_00005046-81
1 54638U 23315SO  26070.40778935  .00000000  00000+0  00000-0 0  9997
2 54638  30.0000 317.6471 0000000   0.0000 313.2353 15.59190035    19
ASTRA_L_00005046-82
1 54639U 24149KK  26070.40778935  .00000000  00000+0  00000-0 0  9994
2 54639  30.0000 317.6471 0000000   0.0000 316.9853 15.59190035    15
